[{"OBJECT_NAME":"STARLINK-1480","OBJECT_ID":"2020-038M","EPOCH":"2026-03-09T17:32:00.403008","MEAN_MOTION":15.47630667,"ECCENTRICITY":0.00068768,"INCLINATION":53.0516,"RA_OF_ASC_NODE":217.0565,"ARG_OF_PERICENTER":179.8885,"MEAN_ANOMALY":180.2125,"EPHEMERIS_TYPE":0,"CLASSIFICATION_TYPE":"U","NORAD_CAT_ID":45741,"ELEMENT_SET_NO":999,"REV_AT_EPOCH":31648,"BSTAR":0.00053203068,"MEAN_MOTION_DOT":0.00027583,"MEAN_MOTION_DDOT":0},{"OBJECT_NAME":"STARLINK-31530","OBJECT_ID":"2024-057C","EPOCH":"2026-03-09T22:00:01.999584","MEAN_MOTION":15.40184743,"ECCENTRICITY":0.00128486,"INCLINATION":42.9973,"RA_OF_ASC_NODE":183.7666,"ARG_OF_PERICENTER":5.4945,"MEAN_ANOMALY":123.5141,"EPHEMERIS_TYPE":0,"CLASSIFICATION_TYPE":"U","NORAD_CAT_ID":59322,"ELEMENT_SET_NO":999,"REV_AT_EPOCH":587,"BSTAR":0.0037392027,"MEAN_MOTION_DOT":0.00156829,"MEAN_MOTION_DDOT":0}]
